SL-8 R/B                
1 15483U 85006B   26162.25026725  .00000176  00000+0  67124-4 0  9993
2 15483  74.0459  88.9889 0018663 337.1764 133.3654 14.37832380167476
SL-12 R/B(2)            
1 15772U 85042D   26162.25386589 -.00000045  00000+0  12662-5 0  9995
2 15772  71.1082 250.0516 0035968 336.7831  87.6531 14.22004845127699
SL-14 R/B               
1 15945U 85069B   26162.11100029  .00000395  00000+0  41871-4 0  9994
2 15945  82.5266 297.0807 0017422 240.6196 119.3282 14.86510853186712
SL-16 R/B               
1 16182U 85097B   26162.14705391 -.00000208  00000+0 -80148-4 0  9990
2 16182  71.0037 303.7943 0005497 123.8776  53.0679 14.16611816100462
SL-14 R/B               
1 16496U 86006B   26162.12973268  .00000496  00000+0  49986-4 0  9999
2 16496  82.5261 171.8138 0075379 323.8860  35.7277 14.86939431163090
COSMOS 1743             
1 16719U 86034A   26161.95118426  .00045273  00000+0  43505-3 0  9997
2 16719  82.5274 335.3610 0003693 300.8019  59.2877 15.66387231194810
SL-14 R/B               
1 16792U 86046B   26162.22596644  .00000325  00000+0  34602-4 0  9992
2 16792  82.4816 351.8091 0021590 279.6077  80.2699 14.85666965140294
SL-14 R/B               
1 16882U 86055B   26162.16133647  .00000344  00000+0  36680-4 0  9994
2 16882  82.5209  38.7986 0019589  27.2087  88.6929 14.85718954133249
AJISAI (EGS)            
1 16908U 86061A   26162.30130787 -.00000069  00000+0  20242-3 0  9999
2 16908  50.0061 165.4943 0011245 165.6425  30.3852 12.44516816479652
SL-14 R/B               
1 17567U 87024B   26162.02342641  .00000326  00000+0  34286-4 0  9993
2 17567  82.5281   5.0446 0017133 315.2459  44.7374 14.86209063101995
COSMOS 1833             
1 17589U 87027A   26162.23273995  .00000319  00000+0  19610-3 0  9993
2 17589  70.9166 129.3843 0022650  65.0032 295.3438 14.13045489 23538
SL-16 R/B               
1 17590U 87027B   26162.21646957 -.00000005  00000+0  21504-4 0  9994
2 17590  71.0034  79.4103 0006270 319.3638  40.7017 14.17172624 28599
SL-14 R/B               
1 17912U 87038B   26162.20107650  .00000292  00000+0  31055-4 0  9994
2 17912  82.5012 208.7108 0018372 211.5609 148.4506 14.85441643 93113
COSMOS 1844             
1 17973U 87041A   26162.23786982 -.00000179  00000+0 -67269-4 0  9991
2 17973  70.8977 196.8567 0033166 244.1541 115.6160 14.14569212 16810
SL-14 R/B               
1 18153U 87055B   26162.22900704  .00000344  00000+0  36621-4 0  9996
2 18153  82.4995 260.8454 0022012  66.2431 294.1091 14.85706889 83828
COSMOS 1867             
1 18187U 87060A   26162.05532436 -.00000069  00000+0  11675-4 0  9990
2 18187  65.0115  45.2315 0016402 282.1254  77.7992 14.31515114 33308
SL-14 R/B               
1 18749U 88001B   26162.23059620  .00000354  00000+0  38018-4 0  9995
2 18749  82.5129 107.3772 0016555 291.1094  68.8352 14.85605233 55912
COSMOS 1933             
1 18958U 88020A   26162.23937266  .00002627  00000+0  12527-3 0  9990
2 18958  82.5117 158.3252 0002859 209.9652 150.1419 15.18675582 64425
SL-3 R/B                
1 19046U 88032B   26162.18988823  .00003232  00000+0  14888-3 0  9996
2 19046  97.5249 145.2366 0023635 267.5509  92.3021 15.20794654 66314
SL-16 R/B               
1 19120U 88039B   26162.20203751 -.00000059  00000+0 -52197-5 0  9992
2 19120  71.0144 230.8138 0022589 201.9596 158.0564 14.19629566971651
COSMOS 1953             
1 19210U 88050A   26162.19776501  .00006741  00000+0  23136-3 0  9992
2 19210  82.5083  64.0733 0011680 144.8041 215.3973 15.29892536 52076
SL-8 R/B                
1 19257U 88053B   26162.11872786  .00000155  00000+0  58643-4 0  9995
2 19257  74.0479 300.2435 0019175  97.8277  80.0569 14.38965191990033
COSMOS 1975             
1 19573U 88093A   26162.06916025  .00006204  00000+0  21718-3 0  9992
2 19573  82.5202  23.8564 0010677 192.9592 167.1375 15.29248193 33675
SL-14 R/B               
1 19574U 88093B   26162.16516372  .00000377  00000+0  40397-4 0  9995
2 19574  82.5306 314.2988 0022194  88.9995  85.1821 14.85737161 14893
SL-16 R/B               
1 19650U 88102B   26162.14259602 -.00000199  00000+0 -76500-4 0  9998
2 19650  71.0004 314.8579 0016024 233.9226 126.0414 14.16166102940124
INTERCOSMOS 24          
1 20261U 89080A   26162.13919659  .00000768  00000+0  21667-3 0  9991
2 20261  82.6072  43.5799 1188407  75.9263 297.0787 12.59651805678560
SL-14 R/B               
1 20262U 89080C   26161.92258594  .00000335  00000+0  99697-4 0  9991
2 20262  82.5924 113.3321 1229091 331.7373  22.1947 12.50566874671800
DELTA 1 R/B             
1 20323U 89089B   26162.14964529  .00000265  00000+0  74003-4 0  9991
2 20323  97.0639 354.6740 0068705 186.0158 174.0223 14.50727150909289
ARIANE 40 R/B           
1 20443U 90005H   26162.13818111  .00000197  00000+0  75942-4 0  9995
2 20443  98.2960 219.9420 0008827 285.2745  74.7467 14.39924236906254
DELTA 2 R/B(1)          
1 20453U 90008B   26161.76134137  .00079226  00000+0  60862-3 0  9999
2 20453  35.6000 278.6164 0066485  53.2270 307.4549 15.67816062940694
