OBJECT_NAME,OBJECT_ID,EPOCH,MEAN_MOTION,ECCENTRICITY,INCLINATION,RA_OF_ASC_NODE,ARG_OF_PERICENTER,MEAN_ANOMALY,EPHEMERIS_TYPE,CLASSIFICATION_TYPE,NORAD_CAT_ID,ELEMENT_SET_NO,REV_AT_EPOCH,BSTAR,MEAN_MOTION_DOT,MEAN_MOTION_DDOT
SL-8 R/B,1985-006B,2026-06-11T06:00:23.090400,14.37832380,.00186639,74.0459,88.9889,337.1764,133.3654,0,U,15483,999,16747,.67123544E-4,.176E-5,0
SL-12 R/B(2),1985-042D,2026-06-11T06:05:34.012896,14.22004845,.00359687,71.1082,250.0516,336.7831,87.6531,0,U,15772,999,12769,.1266155E-5,-.45E-6,0
SL-14 R/B,1985-069B,2026-06-11T02:39:50.425056,14.86510853,.00174227,82.5266,297.0807,240.6196,119.3282,0,U,15945,999,18671,.41870923E-4,.395E-5,0
SL-16 R/B,1985-097B,2026-06-11T03:31:45.457824,14.16611816,.00054975,71.0037,303.7943,123.8776,53.0679,0,U,16182,999,10046,-.80147512E-4,-.208E-5,0
SL-14 R/B,1986-006B,2026-06-11T03:06:48.903552,14.86939431,.00753791,82.5261,171.8138,323.8860,35.7277,0,U,16496,999,16309,.49985639E-4,.496E-5,0
COSMOS 1743,1986-034A,2026-06-10T22:49:42.320064,15.66387231,.00036939,82.5274,335.3610,300.8019,59.2877,0,U,16719,999,19481,.4350485E-3,.45273E-3,0
SL-14 R/B,1986-046B,2026-06-11T05:25:23.500416,14.85666965,.00215902,82.4816,351.8091,279.6077,80.2699,0,U,16792,999,14029,.34602414E-4,.325E-5,0
SL-14 R/B,1986-055B,2026-06-11T03:52:19.471008,14.85718954,.00195898,82.5209,38.7986,27.2087,88.6929,0,U,16882,999,13324,.36680152E-4,.344E-5,0
AJISAI (EGS),1986-061A,2026-06-11T07:13:52.999968,12.44516816,.00112457,50.0061,165.4943,165.6425,30.3852,0,U,16908,999,47965,.20241576E-3,-.69E-6,0
SL-14 R/B,1987-024B,2026-06-11T00:33:44.041824,14.86209063,.00171337,82.5281,5.0446,315.2459,44.7374,0,U,17567,999,10199,.3428649E-4,.326E-5,0
COSMOS 1833,1987-027A,2026-06-11T05:35:08.731680,14.13045489,.00226504,70.9166,129.3843,65.0032,295.3438,0,U,17589,999,2353,.19610061E-3,.319E-5,0
SL-16 R/B,1987-027B,2026-06-11T05:11:42.970848,14.17172624,.00062702,71.0034,79.4103,319.3638,40.7017,0,U,17590,999,2859,.21503798E-4,-.5E-7,0
SL-14 R/B,1987-038B,2026-06-11T04:49:33.009600,14.85441643,.00183724,82.5012,208.7108,211.5609,148.4506,0,U,17912,999,9311,.31055496E-4,.292E-5,0
COSMOS 1844,1987-041A,2026-06-11T05:42:31.952448,14.14569212,.00331662,70.8977,196.8567,244.1541,115.6160,0,U,17973,999,1681,-.67268997E-4,-.179E-5,0
SL-14 R/B,1987-055B,2026-06-11T05:29:46.208256,14.85706889,.00220124,82.4995,260.8454,66.2431,294.1091,0,U,18153,999,8382,.36621087E-4,.344E-5,0
COSMOS 1867,1987-060A,2026-06-11T01:19:40.024704,14.31515114,.00164024,65.0115,45.2315,282.1254,77.7992,0,U,18187,999,3330,.11675331E-4,-.69E-6,0
SL-14 R/B,1988-001B,2026-06-11T05:32:03.511680,14.85605233,.0016555,82.5129,107.3772,291.1094,68.8352,0,U,18749,999,5591,.38018067E-4,.354E-5,0
COSMOS 1933,1988-020A,2026-06-11T05:44:41.797824,15.18675582,.0002859,82.5117,158.3252,209.9652,150.1419,0,U,18958,999,6442,.12527164E-3,.2627E-4,0
SL-3 R/B,1988-032B,2026-06-11T04:33:26.343072,15.20794654,.00236351,97.5249,145.2366,267.5509,92.3021,0,U,19046,999,6631,.14887681E-3,.3232E-4,0
SL-16 R/B,1988-039B,2026-06-11T04:50:56.040864,14.19629566,.00225893,71.0144,230.8138,201.9596,158.0564,0,U,19120,999,97165,-.5219749E-5,-.59E-6,0
COSMOS 1953,1988-050A,2026-06-11T04:44:46.896864,15.29892536,.001168,82.5083,64.0733,144.8041,215.3973,0,U,19210,999,5207,.23135634E-3,.6741E-4,0
SL-8 R/B,1988-053B,2026-06-11T02:50:58.087104,14.38965191,.00191759,74.0479,300.2435,97.8277,80.0569,0,U,19257,999,99003,.58643041E-4,.155E-5,0
COSMOS 1975,1988-093A,2026-06-11T01:39:35.445600,15.29248193,.00106776,82.5202,23.8564,192.9592,167.1375,0,U,19573,999,3367,.21717961E-3,.6204E-4,0
SL-14 R/B,1988-093B,2026-06-11T03:57:50.145408,14.85737161,.00221941,82.5306,314.2988,88.9995,85.1821,0,U,19574,999,1489,.40397272E-4,.377E-5,0
SL-16 R/B,1988-102B,2026-06-11T03:25:20.296128,14.16166102,.0016024,71.0004,314.8579,233.9226,126.0414,0,U,19650,999,94012,-.76499641E-4,-.199E-5,0
INTERCOSMOS 24,1989-080A,2026-06-11T03:20:26.585376,12.59651805,.11884075,82.6072,43.5799,75.9263,297.0787,0,U,20261,999,67856,.21667041E-3,.768E-5,0
SL-14 R/B,1989-080C,2026-06-10T22:08:31.425216,12.50566874,.12290918,82.5924,113.3321,331.7373,22.1947,0,U,20262,999,67180,.99697226E-4,.335E-5,0
DELTA 1 R/B,1989-089B,2026-06-11T03:35:29.353056,14.50727150,.00687059,97.0639,354.6740,186.0158,174.0223,0,U,20323,999,90928,.74003158E-4,.265E-5,0
ARIANE 40 R/B,1990-005H,2026-06-11T03:18:58.847904,14.39924236,.00088272,98.2960,219.9420,285.2745,74.7467,0,U,20443,999,90625,.75942456E-4,.197E-5,0
DELTA 2 R/B(1),1990-008B,2026-06-10T18:16:19.894368,15.67816062,.00664858,35.6000,278.6164,53.2270,307.4549,0,U,20453,999,94069,.60862434E-3,.79226E-3,0
